{
  "type": "FeatureCollection",
  "features": [
    {
      "type": "Feature",
      "properties": {
        "norad_id": 35290,
        "name": "COSMOS 2251 DEB",
        "group": "cosmos-2251-debris",
        "lat": 45.04712718727975,
        "lon": 89.80937869637472,
        "alt_km": 627.3642794680618,
        "timestamp": "2025-12-05T19:30:25.963062+00:00",
        "meta_object_name": "COSMOS 2251 DEB",
        "meta_object_id": "1993-036AJU",
        "meta_epoch": "2025-12-01T06:35:33.142560",
        "meta_mean_motion": 14.79807104,
        "meta_eccentricity": 0.00037082,
        "meta_inclination": 74.0051,
        "meta_ra_of_asc_node": 82.0624,
        "meta_arg_of_pericenter": 206.8807,
        "meta_mean_anomaly": 153.2178,
        "meta_ephemeris_type": 0,
        "meta_classification_type": "U",
        "meta_norad_cat_id": 35290,
        "meta_element_set_no": 999,
        "meta_rev_at_epoch": 87788,
        "meta_bstar": 0.002855926,
        "meta_mean_motion_dot": 0.00021548,
        "meta_mean_motion_ddot": 0,
        "tle_line1": "1 35290U 93036AJU 25335.27468915  .00021548  00000+0  28559-2 0  9990",
        "tle_line2": "2 35290  74.0051  82.0624 0003708 206.8807 153.2178 14.79807104877885"
      },
      "geometry": {
        "type": "Point",
        "coordinates": [
          89.80937869637472,
          45.04712718727975
        ]
      }
    },
    {
      "type": "Feature",
      "properties": {
        "norad_id": 35432,
        "name": "COSMOS 2251 DEB",
        "group": "cosmos-2251-debris",
        "lat": -36.092478693019366,
        "lon": 18.070576075971662,
        "alt_km": 501.8117886892187,
        "timestamp": "2025-12-05T19:30:25.963072+00:00",
        "meta_object_name": "COSMOS 2251 DEB",
        "meta_object_id": "1993-036AKA",
        "meta_epoch": "2025-12-04T13:40:11.641152",
        "meta_mean_motion": 15.20181505,
        "meta_eccentricity": 0.0012071,
        "meta_inclination": 74.0219,
        "meta_ra_of_asc_node": 32.7366,
        "meta_arg_of_pericenter": 351.7672,
        "meta_mean_anomaly": 8.3325,
        "meta_ephemeris_type": 0,
        "meta_classification_type": "U",
        "meta_norad_cat_id": 35432,
        "meta_element_set_no": 999,
        "meta_rev_at_epoch": 87379,
        "meta_bstar": 0.012322,
        "meta_mean_motion_dot": 0.00277665,
        "meta_mean_motion_ddot": 0,
        "tle_line1": "1 35432U 93036AKA 25338.56957918  .00277665  00000+0  12322-1 0  9992",
        "tle_line2": "2 35432  74.0219  32.7366 0012071 351.7672   8.3325 15.20181505873794"
      },
      "geometry": {
        "type": "Point",
        "coordinates": [
          18.070576075971662,
          -36.092478693019366
        ]
      }
    },
    {
      "type": "Feature",
      "properties": {
        "norad_id": 35433,
        "name": "COSMOS 2251 DEB",
        "group": "cosmos-2251-debris",
        "lat": 29.03441158585115,
        "lon": 161.99607832911252,
        "alt_km": 777.6601183643616,
        "timestamp": "2025-12-05T19:30:25.963083+00:00",
        "meta_object_name": "COSMOS 2251 DEB",
        "meta_object_id": "1993-036AKB",
        "meta_epoch": "2025-12-04T18:14:48.155712",
        "meta_mean_motion": 14.34727906,
        "meta_eccentricity": 0.00255548,
        "meta_inclination": 74.0347,
        "meta_ra_of_asc_node": 353.0673,
        "meta_arg_of_pericenter": 50.771,
        "meta_mean_anomaly": 64.4133,
        "meta_ephemeris_type": 0,
        "meta_classification_type": "U",
        "meta_norad_cat_id": 35433,
        "meta_element_set_no": 999,
        "meta_rev_at_epoch": 86466,
        "meta_bstar": 0.00043822497,
        "meta_mean_motion_dot": 1.22e-05,
        "meta_mean_motion_ddot": 0,
        "tle_line1": "1 35433U 93036AKB 25338.76027958  .00001220  00000+0  43822-3 0  9990",
        "tle_line2": "2 35433  74.0347 353.0673 0025554  50.7710  64.4133 14.34727906864667"
      },
      "geometry": {
        "type": "Point",
        "coordinates": [
          161.99607832911252,
          29.03441158585115
        ]
      }
    },
    {
      "type": "Feature",
      "properties": {
        "norad_id": 35434,
        "name": "COSMOS 2251 DEB",
        "group": "cosmos-2251-debris",
        "lat": -64.62316274377405,
        "lon": -170.97594420231246,
        "alt_km": 750.9137825856442,
        "timestamp": "2025-12-05T19:30:25.963094+00:00",
        "meta_object_name": "COSMOS 2251 DEB",
        "meta_object_id": "1993-036AKC",
        "meta_epoch": "2025-12-05T01:18:18.525312",
        "meta_mean_motion": 14.2565165,
        "meta_eccentricity": 0.0087511,
        "meta_inclination": 74.0414,
        "meta_ra_of_asc_node": 227.4955,
        "meta_arg_of_pericenter": 299.8611,
        "meta_mean_anomaly": 59.386,
        "meta_ephemeris_type": 0,
        "meta_classification_type": "U",
        "meta_norad_cat_id": 35434,
        "meta_element_set_no": 999,
        "meta_rev_at_epoch": 86008,
        "meta_bstar": 0.0013097778,
        "meta_mean_motion_dot": 3.207e-05,
        "meta_mean_motion_ddot": 0,
        "tle_line1": "1 35434U 93036AKC 25339.05438108  .00003207  00000+0  13098-2 0  9995",
        "tle_line2": "2 35434  74.0414 227.4955 0087511 299.8611  59.3860 14.25651650860081"
      },
      "geometry": {
        "type": "Point",
        "coordinates": [
          -170.97594420231246,
          -64.62316274377405
        ]
      }
    },
    {
      "type": "Feature",
      "properties": {
        "norad_id": 35435,
        "name": "COSMOS 2251 DEB",
        "group": "cosmos-2251-debris",
        "lat": -66.27495563489079,
        "lon": -21.578768467036138,
        "alt_km": 637.4457115325813,
        "timestamp": "2025-12-05T19:30:25.963104+00:00",
        "meta_object_name": "COSMOS 2251 DEB",
        "meta_object_id": "1993-036AKD",
        "meta_epoch": "2025-12-05T02:38:39.255648",
        "meta_mean_motion": 14.78072342,
        "meta_eccentricity": 0.00091016,
        "meta_inclination": 74.0102,
        "meta_ra_of_asc_node": 119.0761,
        "meta_arg_of_pericenter": 211.2048,
        "meta_mean_anomaly": 263.7282,
        "meta_ephemeris_type": 0,
        "meta_classification_type": "U",
        "meta_norad_cat_id": 35435,
        "meta_element_set_no": 999,
        "meta_rev_at_epoch": 87426,
        "meta_bstar": 0.0046321505,
        "meta_mean_motion_dot": 0.00033645,
        "meta_mean_motion_ddot": 0,
        "tle_line1": "1 35435U 93036AKD 25339.11017657  .00033645  00000+0  46322-2 0  9990",
        "tle_line2": "2 35435  74.0102 119.0761 0009101 211.2048 263.7282 14.78072342874265"
      },
      "geometry": {
        "type": "Point",
        "coordinates": [
          -21.578768467036138,
          -66.27495563489079
        ]
      }
    },
    {
      "type": "Feature",
      "properties": {
        "norad_id": 35439,
        "name": "COSMOS 2251 DEB",
        "group": "cosmos-2251-debris",
        "lat": 27.87854373956762,
        "lon": -42.1106712637275,
        "alt_km": 1088.6553697024083,
        "timestamp": "2025-12-05T19:30:25.963114+00:00",
        "meta_object_name": "COSMOS 2251 DEB",
        "meta_object_id": "1993-036AKH",
        "meta_epoch": "2025-12-03T18:34:55.041888",
        "meta_mean_motion": 13.92746619,
        "meta_eccentricity": 0.02415919,
        "meta_inclination": 74.0184,
        "meta_ra_of_asc_node": 150.1,
        "meta_arg_of_pericenter": 321.3614,
        "meta_mean_anomaly": 52.9167,
        "meta_ephemeris_type": 0,
        "meta_classification_type": "U",
        "meta_norad_cat_id": 35439,
        "meta_element_set_no": 999,
        "meta_rev_at_epoch": 83836,
        "meta_bstar": 0.0019584258,
        "meta_mean_motion_dot": 3.195e-05,
        "meta_mean_motion_ddot": 0,
        "tle_line1": "1 35439U 93036AKH 25337.77424817  .00003195  00000+0  19584-2 0  9991",
        "tle_line2": "2 35439  74.0184 150.1000 0241591 321.3614  52.9167 13.92746619838365"
      },
      "geometry": {
        "type": "Point",
        "coordinates": [
          -42.1106712637275,
          27.87854373956762
        ]
      }
    },
    {
      "type": "Feature",
      "properties": {
        "norad_id": 35440,
        "name": "COSMOS 2251 DEB",
        "group": "cosmos-2251-debris",
        "lat": 47.74505413967975,
        "lon": 22.657607009534953,
        "alt_km": 688.8249749546103,
        "timestamp": "2025-12-05T19:30:25.963125+00:00",
        "meta_object_name": "COSMOS 2251 DEB",
        "meta_object_id": "1993-036AKJ",
        "meta_epoch": "2025-12-04T00:25:11.600832",
        "meta_mean_motion": 14.68734875,
        "meta_eccentricity": 0.0068957,
        "meta_inclination": 74.0159,
        "meta_ra_of_asc_node": 224.5259,
        "meta_arg_of_pericenter": 7.4237,
        "meta_mean_anomaly": 352.7936,
        "meta_ephemeris_type": 0,
        "meta_classification_type": "U",
        "meta_norad_cat_id": 35440,
        "meta_element_set_no": 999,
        "meta_rev_at_epoch": 68637,
        "meta_bstar": 0.0010432053,
        "meta_mean_motion_dot": 6.276e-05,
        "meta_mean_motion_ddot": 0,
        "tle_line1": "1 35440U 93036AKJ 25338.01749538  .00006276  00000+0  10432-2 0  9997",
        "tle_line2": "2 35440  74.0159 224.5259 0068957   7.4237 352.7936 14.68734875686379"
      },
      "geometry": {
        "type": "Point",
        "coordinates": [
          22.657607009534953,
          47.74505413967975
        ]
      }
    }
  ]
}